[{"OBJECT_NAME":"JILIN-1 GAOFEN 03D51","OBJECT_ID":"2022-155B","EPOCH":"2026-03-09T23:29:49.177824","MEAN_MOTION":15.53426139,"ECCENTRICITY":0.00041755,"INCLINATION":97.6074,"RA_OF_ASC_NODE":206.9827,"ARG_OF_PERICENTER":0.2609,"MEAN_ANOMALY":359.8645,"EPHEMERIS_TYPE":0,"CLASSIFICATION_TYPE":"U","NORAD_CAT_ID":54252,"ELEMENT_SET_NO":999,"REV_AT_EPOCH":18430,"BSTAR":0.00078105929,"MEAN_MOTION_DOT":0.00049603,"MEAN_MOTION_DDOT":0},{"OBJECT_NAME":"STARLINK-34110","OBJECT_ID":"2025-092H","EPOCH":"2026-03-09T22:00:01.999584","MEAN_MOTION":15.4924714,"ECCENTRICITY":0.00181269,"INCLINATION":42.9979,"RA_OF_ASC_NODE":165.6091,"ARG_OF_PERICENTER":24.4978,"MEAN_ANOMALY":20.6229,"EPHEMERIS_TYPE":0,"CLASSIFICATION_TYPE":"U","NORAD_CAT_ID":63811,"ELEMENT_SET_NO":999,"REV_AT_EPOCH":578,"BSTAR":0.003973099,"MEAN_MOTION_DOT":0.00229974,"MEAN_MOTION_DDOT":0}]
